SL-4 R/B                
1 39679U 14021B   26059.27831937  .00015566  00000+0  34662-3 0  9990
2 39679  51.6075  23.1783 0098318  68.6580 292.4864 15.38813940654828
ALOS-2                  
1 39766U 14029A   26059.25028403  .00002115  00000+0  29010-3 0  9996
2 39766  97.9197 157.9839 0001500  97.4896 262.6486 14.79460291635478
YAOGAN-29               
1 41038U 15069A   26059.28086903  .00000262  00000+0  38937-4 0  9998
2 41038  98.0162  87.6852 0002420  51.2734 308.8695 14.82981530554486
ASTRO-H (HITOMI)        
1 41337U 16012A   26059.31337619  .00003686  00000+0  21591-3 0  9996
2 41337  31.0000  57.0505 0010010 238.0552 121.9113 15.09924006550816
HXMT (HUIYAN)           
1 42758U 17034A   26059.29874331  .00005759  00000+0  29163-3 0  9999
2 42758  43.0148  68.8769 0031769 177.7471 182.3525 15.17321274481116
SAOCOM 1A               
1 43641U 18076A   26059.24153743  .00000101  00000+0  19266-4 0  9990
2 43641  97.8890 247.5471 0001330  80.4072 279.7292 14.82155711399968
H-2A R/B                
1 43682U 18084L   26059.12336395  .00020646  00000+0  49877-3 0  9993
2 43682  98.8747 274.4698 0026060  57.6716 302.7044 15.40871117404300
SAOCOM 1B               
1 46265U 20059A   26059.27277028  .00000595  00000+0  81247-4 0  9990
2 46265  97.8887 246.6755 0001468  85.6325 274.5056 14.82160132297358
CSS (TIANHE)            
1 48274U 21035A   26059.24332133  .00022938  00000+0  27649-3 0  9993
2 48274  41.4655 265.6207 0006303 213.2010 146.8433 15.60219288276131
CZ-2C R/B               
1 52794U 22058K   26059.25195995  .00028643  00000+0  43179-3 0  9990
2 52794  50.1900   6.8084 0042149 160.5919 199.6668 15.53474495208665
