CCSDS_OMM_VERS = 2.0
CREATION_DATE  = 
ORIGINATOR     = 

OBJECT_NAME    = SL-4 R/B
OBJECT_ID      = 2014-021B
CENTER_NAME    = EARTH
REF_FRAME      = TEME
TIME_SYSTEM    = UTC
MEAN_ELEMENT_THEORY = SGP/SGP4

EPOCH          = 2026-02-28T06:40:46.793568
MEAN_MOTION    = 15.38813940
ECCENTRICITY   = .00983186
INCLINATION    = 51.6075
RA_OF_ASC_NODE = 23.1783
ARG_OF_PERICENTER = 68.6580
MEAN_ANOMALY   = 292.4864

EPHEMERIS_TYPE = 0
CLASSIFICATION_TYPE = U
NORAD_CAT_ID   = 39679
ELEMENT_SET_NO = 999
REV_AT_EPOCH   = 65482
BSTAR          = .34661947E-3
MEAN_MOTION_DOT = .15566E-3
MEAN_MOTION_DDOT = 0

CCSDS_OMM_VERS = 2.0
CREATION_DATE  = 
ORIGINATOR     = 

OBJECT_NAME    = ALOS-2
OBJECT_ID      = 2014-029A
CENTER_NAME    = EARTH
REF_FRAME      = TEME
TIME_SYSTEM    = UTC
MEAN_ELEMENT_THEORY = SGP/SGP4

EPOCH          = 2026-02-28T06:00:24.540192
MEAN_MOTION    = 14.79460291
ECCENTRICITY   = .00015001
INCLINATION    = 97.9197
RA_OF_ASC_NODE = 157.9839
ARG_OF_PERICENTER = 97.4896
MEAN_ANOMALY   = 262.6486

EPHEMERIS_TYPE = 0
CLASSIFICATION_TYPE = U
NORAD_CAT_ID   = 39766
ELEMENT_SET_NO = 999
REV_AT_EPOCH   = 63547
BSTAR          = .29009619E-3
MEAN_MOTION_DOT = .2115E-4
MEAN_MOTION_DDOT = 0

CCSDS_OMM_VERS = 2.0
CREATION_DATE  = 
ORIGINATOR     = 

OBJECT_NAME    = YAOGAN-29
OBJECT_ID      = 2015-069A
CENTER_NAME    = EARTH
REF_FRAME      = TEME
TIME_SYSTEM    = UTC
MEAN_ELEMENT_THEORY = SGP/SGP4

EPOCH          = 2026-02-28T06:44:27.084192
MEAN_MOTION    = 14.82981530
ECCENTRICITY   = .00024206
INCLINATION    = 98.0162
RA_OF_ASC_NODE = 87.6852
ARG_OF_PERICENTER = 51.2734
MEAN_ANOMALY   = 308.8695

EPHEMERIS_TYPE = 0
CLASSIFICATION_TYPE = U
NORAD_CAT_ID   = 41038
ELEMENT_SET_NO = 999
REV_AT_EPOCH   = 55448
BSTAR          = .38937426E-4
MEAN_MOTION_DOT = .262E-5
MEAN_MOTION_DDOT = 0

CCSDS_OMM_VERS = 2.0
CREATION_DATE  = 
ORIGINATOR     = 

OBJECT_NAME    = ASTRO-H (HITOMI)
OBJECT_ID      = 2016-012A
CENTER_NAME    = EARTH
REF_FRAME      = TEME
TIME_SYSTEM    = UTC
MEAN_ELEMENT_THEORY = SGP/SGP4

EPOCH          = 2026-02-28T07:31:15.702816
MEAN_MOTION    = 15.09924006
ECCENTRICITY   = .001001
INCLINATION    = 31.0000
RA_OF_ASC_NODE = 57.0505
ARG_OF_PERICENTER = 238.0552
MEAN_ANOMALY   = 121.9113

EPHEMERIS_TYPE = 0
CLASSIFICATION_TYPE = U
NORAD_CAT_ID   = 41337
ELEMENT_SET_NO = 999
REV_AT_EPOCH   = 55081
BSTAR          = .21590737E-3
MEAN_MOTION_DOT = .3686E-4
MEAN_MOTION_DDOT = 0

CCSDS_OMM_VERS = 2.0
CREATION_DATE  = 
ORIGINATOR     = 

OBJECT_NAME    = HXMT (HUIYAN)
OBJECT_ID      = 2017-034A
CENTER_NAME    = EARTH
REF_FRAME      = TEME
TIME_SYSTEM    = UTC
MEAN_ELEMENT_THEORY = SGP/SGP4

EPOCH          = 2026-02-28T07:10:11.421984
MEAN_MOTION    = 15.17321274
ECCENTRICITY   = .00317698
INCLINATION    = 43.0148
RA_OF_ASC_NODE = 68.8769
ARG_OF_PERICENTER = 177.7471
MEAN_ANOMALY   = 182.3525

EPHEMERIS_TYPE = 0
CLASSIFICATION_TYPE = U
NORAD_CAT_ID   = 42758
ELEMENT_SET_NO = 999
REV_AT_EPOCH   = 48111
BSTAR          = .29162825E-3
MEAN_MOTION_DOT = .5759E-4
MEAN_MOTION_DDOT = 0

CCSDS_OMM_VERS = 2.0
CREATION_DATE  = 
ORIGINATOR     = 

OBJECT_NAME    = SAOCOM 1A
OBJECT_ID      = 2018-076A
CENTER_NAME    = EARTH
REF_FRAME      = TEME
TIME_SYSTEM    = UTC
MEAN_ELEMENT_THEORY = SGP/SGP4

EPOCH          = 2026-02-28T05:47:48.833952
MEAN_MOTION    = 14.82155711
ECCENTRICITY   = .00013303
INCLINATION    = 97.8890
RA_OF_ASC_NODE = 247.5471
ARG_OF_PERICENTER = 80.4072
MEAN_ANOMALY   = 279.7292

EPHEMERIS_TYPE = 0
CLASSIFICATION_TYPE = U
NORAD_CAT_ID   = 43641
ELEMENT_SET_NO = 999
REV_AT_EPOCH   = 39996
BSTAR          = .19265809E-4
MEAN_MOTION_DOT = .101E-5
MEAN_MOTION_DDOT = 0

CCSDS_OMM_VERS = 2.0
CREATION_DATE  = 
ORIGINATOR     = 

OBJECT_NAME    = H-2A R/B
OBJECT_ID      = 2018-084L
CENTER_NAME    = EARTH
REF_FRAME      = TEME
TIME_SYSTEM    = UTC
MEAN_ELEMENT_THEORY = SGP/SGP4

EPOCH          = 2026-02-28T02:57:38.645280
MEAN_MOTION    = 15.40871117
ECCENTRICITY   = .00260601
INCLINATION    = 98.8747
RA_OF_ASC_NODE = 274.4698
ARG_OF_PERICENTER = 57.6716
MEAN_ANOMALY   = 302.7044

EPHEMERIS_TYPE = 0
CLASSIFICATION_TYPE = U
NORAD_CAT_ID   = 43682
ELEMENT_SET_NO = 999
REV_AT_EPOCH   = 40430
BSTAR          = .49877292E-3
MEAN_MOTION_DOT = .20646E-3
MEAN_MOTION_DDOT = 0

CCSDS_OMM_VERS = 2.0
CREATION_DATE  = 
ORIGINATOR     = 

OBJECT_NAME    = SAOCOM 1B
OBJECT_ID      = 2020-059A
CENTER_NAME    = EARTH
REF_FRAME      = TEME
TIME_SYSTEM    = UTC
MEAN_ELEMENT_THEORY = SGP/SGP4

EPOCH          = 2026-02-28T06:32:47.352192
MEAN_MOTION    = 14.82160132
ECCENTRICITY   = .00014688
INCLINATION    = 97.8887
RA_OF_ASC_NODE = 246.6755
ARG_OF_PERICENTER = 85.6325
MEAN_ANOMALY   = 274.5056

EPHEMERIS_TYPE = 0
CLASSIFICATION_TYPE = U
NORAD_CAT_ID   = 46265
ELEMENT_SET_NO = 999
REV_AT_EPOCH   = 29735
BSTAR          = .81247068E-4
MEAN_MOTION_DOT = .595E-5
MEAN_MOTION_DDOT = 0

CCSDS_OMM_VERS = 2.0
CREATION_DATE  = 
ORIGINATOR     = 

OBJECT_NAME    = CSS (TIANHE)
OBJECT_ID      = 2021-035A
CENTER_NAME    = EARTH
REF_FRAME      = TEME
TIME_SYSTEM    = UTC
MEAN_ELEMENT_THEORY = SGP/SGP4

EPOCH          = 2026-02-28T05:50:22.962912
MEAN_MOTION    = 15.60219288
ECCENTRICITY   = .00063031
INCLINATION    = 41.4655
RA_OF_ASC_NODE = 265.6207
ARG_OF_PERICENTER = 213.2010
MEAN_ANOMALY   = 146.8433

EPHEMERIS_TYPE = 0
CLASSIFICATION_TYPE = U
NORAD_CAT_ID   = 48274
ELEMENT_SET_NO = 999
REV_AT_EPOCH   = 27613
BSTAR          = .27648728E-3
MEAN_MOTION_DOT = .22938E-3
MEAN_MOTION_DDOT = 0

CCSDS_OMM_VERS = 2.0
CREATION_DATE  = 
ORIGINATOR     = 

OBJECT_NAME    = CZ-2C R/B
OBJECT_ID      = 2022-058K
CENTER_NAME    = EARTH
REF_FRAME      = TEME
TIME_SYSTEM    = UTC
MEAN_ELEMENT_THEORY = SGP/SGP4

EPOCH          = 2026-02-28T06:02:49.339680
MEAN_MOTION    = 15.53474495
ECCENTRICITY   = .00421496
INCLINATION    = 50.1900
RA_OF_ASC_NODE = 6.8084
ARG_OF_PERICENTER = 160.5919
MEAN_ANOMALY   = 199.6668

EPHEMERIS_TYPE = 0
CLASSIFICATION_TYPE = U
NORAD_CAT_ID   = 52794
ELEMENT_SET_NO = 999
REV_AT_EPOCH   = 20866
BSTAR          = .43179312E-3
MEAN_MOTION_DOT = .28643E-3
MEAN_MOTION_DDOT = 0

